[{"OBJECT_NAME":"STARLINK-36064","OBJECT_ID":"2025-283X","EPOCH":"2026-03-09T02:41:36.868128","MEAN_MOTION":15.30188289,"ECCENTRICITY":9.045e-5,"INCLINATION":53.1607,"RA_OF_ASC_NODE":27.0019,"ARG_OF_PERICENTER":74.5347,"MEAN_ANOMALY":285.5753,"EPHEMERIS_TYPE":0,"CLASSIFICATION_TYPE":"U","NORAD_CAT_ID":66899,"ELEMENT_SET_NO":999,"REV_AT_EPOCH":1575,"BSTAR":0.001485195,"MEAN_MOTION_DOT":0.00043872,"MEAN_MOTION_DDOT":0},{"OBJECT_NAME":"CZ-4B R\/B","OBJECT_ID":"2010-051C","EPOCH":"2026-03-09T16:48:37.977120","MEAN_MOTION":15.17426017,"ECCENTRICITY":0.00758037,"INCLINATION":97.7974,"RA_OF_ASC_NODE":110.8647,"ARG_OF_PERICENTER":95.044,"MEAN_ANOMALY":265.9451,"EPHEMERIS_TYPE":0,"CLASSIFICATION_TYPE":"U","NORAD_CAT_ID":37181,"ELEMENT_SET_NO":999,"REV_AT_EPOCH":84355,"BSTAR":0.00029718512,"MEAN_MOTION_DOT":6.328e-5,"MEAN_MOTION_DDOT":0}]
